KUIPER-00035            
1 63748U 25088AA  25243.27325940  .00001834  00000+0  26965-3 0  9995
2 63748  51.9008 236.1187 0005633 162.8575 197.2579 14.79933542 19313
KUIPER-00037            
1 63749U 25088AB  25243.27489703  .00003137  00000+0  44009-3 0  9991
2 63749  51.8984 235.0776 0006980 105.6268 254.5465 14.79962467 20117
KUIPER-00038            
1 63750U 25088AC  25243.25001157 -.01264728  00000+0 -10833+0 0  9996
2 63750  51.8900 221.1482 0006800 158.9317 228.5201 15.00145696  4689
KUIPER-00039            
1 64500U 25134A   25243.25001157 -.01391443  00000+0 -65282-1 0  9997
2 64500  51.8789   0.0820 0009124  11.0971 311.3648 15.22450539  5805
KUIPER-00040            
1 64501U 25134B   25243.25001157 -.00001170  00000+0 -97526-4 0  9991
2 64501  51.8940   6.6709 0017082   0.9214 220.8904 14.88842070  5166
KUIPER-00041            
1 64502U 25134C   25243.25001157  .00000478  00000+0  84832-4 0  9996
2 64502  51.8967   7.8142 0014259   3.4441 324.2220 14.83774261  4567
KUIPER-00042            
1 64503U 25134D   25243.25001157 -.01715951  00000+0 -15404+0 0  9993
2 64503  51.8886   4.5635 0012704   7.2484 259.8243 14.98752952  2814
KUIPER-00043            
1 64504U 25134E   25243.25001157 -.00136895  00000+0 -63854-2 0  9992
2 64504  51.8825   0.8216 0007645   5.6738 347.2247 15.19912836  5018
